[{"OBJECT_NAME":"LEMUR-2-PETERG","OBJECT_ID":"2017-042S","EPOCH":"2026-03-09T11:34:35.656032","MEAN_MOTION":15.29611459,"ECCENTRICITY":0.00037,"INCLINATION":97.398,"RA_OF_ASC_NODE":253.6596,"ARG_OF_PERICENTER":341.6938,"MEAN_ANOMALY":18.4169,"EPHEMERIS_TYPE":0,"CLASSIFICATION_TYPE":"U","NORAD_CAT_ID":42841,"ELEMENT_SET_NO":999,"REV_AT_EPOCH":47317,"BSTAR":0.00081076471,"MEAN_MOTION_DOT":0.0002324,"MEAN_MOTION_DDOT":0},{"OBJECT_NAME":"STARLINK-33686","OBJECT_ID":"2025-065Z","EPOCH":"2026-03-09T11:01:03.255744","MEAN_MOTION":15.27595088,"ECCENTRICITY":0.00012654,"INCLINATION":42.9974,"RA_OF_ASC_NODE":108.4015,"ARG_OF_PERICENTER":261.587,"MEAN_ANOMALY":98.4839,"EPHEMERIS_TYPE":0,"CLASSIFICATION_TYPE":"U","NORAD_CAT_ID":63422,"ELEMENT_SET_NO":999,"REV_AT_EPOCH":5280,"BSTAR":0.0010038045,"MEAN_MOTION_DOT":0.00027476,"MEAN_MOTION_DDOT":0}]
